CCSDS_OMM_VERS = 2.0
CREATION_DATE  = 
ORIGINATOR     = 

OBJECT_NAME    = STARLINK-36472
OBJECT_ID      = 2026-003N
CENTER_NAME    = EARTH
REF_FRAME      = TEME
TIME_SYSTEM    = UTC
MEAN_ELEMENT_THEORY = SGP/SGP4

EPOCH          = 2026-02-05T01:39:26.904960
MEAN_MOTION    = 15.50616899
ECCENTRICITY   = .0001268
INCLINATION    = 42.9995
RA_OF_ASC_NODE = 52.2757
ARG_OF_PERICENTER = 257.2498
MEAN_ANOMALY   = 102.8221

EPHEMERIS_TYPE = 0
CLASSIFICATION_TYPE = U
NORAD_CAT_ID   = 67346
ELEMENT_SET_NO = 999
REV_AT_EPOCH   = 381
BSTAR          = .19988E-2
MEAN_MOTION_DOT = .118878E-2
MEAN_MOTION_DDOT = 0

CCSDS_OMM_VERS = 2.0
CREATION_DATE  = 
ORIGINATOR     = 

OBJECT_NAME    = STARLINK-36420
OBJECT_ID      = 2026-003P
CENTER_NAME    = EARTH
REF_FRAME      = TEME
TIME_SYSTEM    = UTC
MEAN_ELEMENT_THEORY = SGP/SGP4

EPOCH          = 2026-02-05T01:38:27.608640
MEAN_MOTION    = 15.50623702
ECCENTRICITY   = .000146
INCLINATION    = 42.9988
RA_OF_ASC_NODE = 52.2690
ARG_OF_PERICENTER = 263.7620
MEAN_ANOMALY   = 96.3074

EPHEMERIS_TYPE = 0
CLASSIFICATION_TYPE = U
NORAD_CAT_ID   = 67347
ELEMENT_SET_NO = 999
REV_AT_EPOCH   = 382
BSTAR          = .26165E-2
MEAN_MOTION_DOT = .15651E-2
MEAN_MOTION_DDOT = 0

CCSDS_OMM_VERS = 2.0
CREATION_DATE  = 
ORIGINATOR     = 

OBJECT_NAME    = STARLINK-36467
OBJECT_ID      = 2026-003Q
CENTER_NAME    = EARTH
REF_FRAME      = TEME
TIME_SYSTEM    = UTC
MEAN_ELEMENT_THEORY = SGP/SGP4

EPOCH          = 2026-02-05T01:38:57.171264
MEAN_MOTION    = 15.50617301
ECCENTRICITY   = .000132
INCLINATION    = 42.9983
RA_OF_ASC_NODE = 52.2736
ARG_OF_PERICENTER = 267.7650
MEAN_ANOMALY   = 92.3059

EPHEMERIS_TYPE = 0
CLASSIFICATION_TYPE = U
NORAD_CAT_ID   = 67348
ELEMENT_SET_NO = 999
REV_AT_EPOCH   = 382
BSTAR          = .19833E-2
MEAN_MOTION_DOT = .117937E-2
MEAN_MOTION_DDOT = 0

CCSDS_OMM_VERS = 2.0
CREATION_DATE  = 
ORIGINATOR     = 

OBJECT_NAME    = STARLINK-36457
OBJECT_ID      = 2026-003R
CENTER_NAME    = EARTH
REF_FRAME      = TEME
TIME_SYSTEM    = UTC
MEAN_ELEMENT_THEORY = SGP/SGP4

EPOCH          = 2026-02-05T01:37:58.159200
MEAN_MOTION    = 15.50641746
ECCENTRICITY   = .0000408
INCLINATION    = 42.9963
RA_OF_ASC_NODE = 52.2678
ARG_OF_PERICENTER = 234.2252
MEAN_ANOMALY   = 125.8571

EPHEMERIS_TYPE = 0
CLASSIFICATION_TYPE = U
NORAD_CAT_ID   = 67349
ELEMENT_SET_NO = 999
REV_AT_EPOCH   = 382
BSTAR          = .15583E-2
MEAN_MOTION_DOT = .92368E-3
MEAN_MOTION_DDOT = 0

CCSDS_OMM_VERS = 2.0
CREATION_DATE  = 
ORIGINATOR     = 

OBJECT_NAME    = STARLINK-36475
OBJECT_ID      = 2026-003S
CENTER_NAME    = EARTH
REF_FRAME      = TEME
TIME_SYSTEM    = UTC
MEAN_ELEMENT_THEORY = SGP/SGP4

EPOCH          = 2026-02-05T01:37:28.369344
MEAN_MOTION    = 15.50622447
ECCENTRICITY   = .0001525
INCLINATION    = 42.9990
RA_OF_ASC_NODE = 52.2637
ARG_OF_PERICENTER = 245.7232
MEAN_ANOMALY   = 114.3469

EPHEMERIS_TYPE = 0
CLASSIFICATION_TYPE = U
NORAD_CAT_ID   = 67350
ELEMENT_SET_NO = 999
REV_AT_EPOCH   = 382
BSTAR          = .27523E-2
MEAN_MOTION_DOT = .164825E-2
MEAN_MOTION_DDOT = 0

CCSDS_OMM_VERS = 2.0
CREATION_DATE  = 
ORIGINATOR     = 

OBJECT_NAME    = STARLINK-36478
OBJECT_ID      = 2026-003T
CENTER_NAME    = EARTH
REF_FRAME      = TEME
TIME_SYSTEM    = UTC
MEAN_ELEMENT_THEORY = SGP/SGP4

EPOCH          = 2026-02-05T01:36:58.766112
MEAN_MOTION    = 15.50609263
ECCENTRICITY   = .000132
INCLINATION    = 42.9999
RA_OF_ASC_NODE = 52.2615
ARG_OF_PERICENTER = 250.1566
MEAN_ANOMALY   = 109.9152

EPHEMERIS_TYPE = 0
CLASSIFICATION_TYPE = U
NORAD_CAT_ID   = 67351
ELEMENT_SET_NO = 999
REV_AT_EPOCH   = 382
BSTAR          = .23373E-2
MEAN_MOTION_DOT = .139397E-2
MEAN_MOTION_DDOT = 0

CCSDS_OMM_VERS = 2.0
CREATION_DATE  = 
ORIGINATOR     = 

OBJECT_NAME    = STARLINK-36479
OBJECT_ID      = 2026-003U
CENTER_NAME    = EARTH
REF_FRAME      = TEME
TIME_SYSTEM    = UTC
MEAN_ELEMENT_THEORY = SGP/SGP4

EPOCH          = 2026-02-05T01:36:29.131776
MEAN_MOTION    = 15.50657974
ECCENTRICITY   = .000043
INCLINATION    = 42.9967
RA_OF_ASC_NODE = 52.2584
ARG_OF_PERICENTER = 235.1681
MEAN_ANOMALY   = 124.9139

EPHEMERIS_TYPE = 0
CLASSIFICATION_TYPE = U
NORAD_CAT_ID   = 67352
ELEMENT_SET_NO = 999
REV_AT_EPOCH   = 382
BSTAR          = .19104E-2
MEAN_MOTION_DOT = .113695E-2
MEAN_MOTION_DDOT = 0

CCSDS_OMM_VERS = 2.0
CREATION_DATE  = 
ORIGINATOR     = 

OBJECT_NAME    = STARLINK-36474
OBJECT_ID      = 2026-003V
CENTER_NAME    = EARTH
REF_FRAME      = TEME
TIME_SYSTEM    = UTC
MEAN_ELEMENT_THEORY = SGP/SGP4

EPOCH          = 2026-02-04T20:00:00.999360
MEAN_MOTION    = 15.50616681
ECCENTRICITY   = .0001188
INCLINATION    = 42.9995
RA_OF_ASC_NODE = 53.6200
ARG_OF_PERICENTER = 253.9930
MEAN_ANOMALY   = 242.1176

EPHEMERIS_TYPE = 0
CLASSIFICATION_TYPE = U
NORAD_CAT_ID   = 67353
ELEMENT_SET_NO = 999
REV_AT_EPOCH   = 539
BSTAR          = -.15471E-2
MEAN_MOTION_DOT = -.90185E-3
MEAN_MOTION_DDOT = 0

CCSDS_OMM_VERS = 2.0
CREATION_DATE  = 
ORIGINATOR     = 

OBJECT_NAME    = STARLINK-36448
OBJECT_ID      = 2026-003W
CENTER_NAME    = EARTH
REF_FRAME      = TEME
TIME_SYSTEM    = UTC
MEAN_ELEMENT_THEORY = SGP/SGP4

EPOCH          = 2026-02-05T01:34:31.148256
MEAN_MOTION    = 15.50627767
ECCENTRICITY   = .0000269
INCLINATION    = 42.9937
RA_OF_ASC_NODE = 52.2472
ARG_OF_PERICENTER = 147.8918
MEAN_ANOMALY   = 212.1959

EPHEMERIS_TYPE = 0
CLASSIFICATION_TYPE = U
NORAD_CAT_ID   = 67354
ELEMENT_SET_NO = 999
REV_AT_EPOCH   = 382
BSTAR          = .14457E-2
MEAN_MOTION_DOT = .85551E-3
MEAN_MOTION_DDOT = 0

CCSDS_OMM_VERS = 2.0
CREATION_DATE  = 
ORIGINATOR     = 

OBJECT_NAME    = STARLINK-36477
OBJECT_ID      = 2026-003X
CENTER_NAME    = EARTH
REF_FRAME      = TEME
TIME_SYSTEM    = UTC
MEAN_ELEMENT_THEORY = SGP/SGP4

EPOCH          = 2026-02-05T03:08:15.192960
MEAN_MOTION    = 15.50622484
ECCENTRICITY   = .0001143
INCLINATION    = 42.9992
RA_OF_ASC_NODE = 51.8761
ARG_OF_PERICENTER = 261.9247
MEAN_ANOMALY   = 98.1483

EPHEMERIS_TYPE = 0
CLASSIFICATION_TYPE = U
NORAD_CAT_ID   = 67355
ELEMENT_SET_NO = 999
REV_AT_EPOCH   = 383
BSTAR          = .1778E-2
MEAN_MOTION_DOT = .105547E-2
MEAN_MOTION_DDOT = 0

CCSDS_OMM_VERS = 2.0
CREATION_DATE  = 
ORIGINATOR     = 

OBJECT_NAME    = STARLINK-36429
OBJECT_ID      = 2026-003Y
CENTER_NAME    = EARTH
REF_FRAME      = TEME
TIME_SYSTEM    = UTC
MEAN_ELEMENT_THEORY = SGP/SGP4

EPOCH          = 2026-02-05T01:35:00.204576
MEAN_MOTION    = 15.50663142
ECCENTRICITY   = .0002854
INCLINATION    = 42.9974
RA_OF_ASC_NODE = 52.2480
ARG_OF_PERICENTER = 281.4435
MEAN_ANOMALY   = 78.6104

EPHEMERIS_TYPE = 0
CLASSIFICATION_TYPE = U
NORAD_CAT_ID   = 67356
ELEMENT_SET_NO = 999
REV_AT_EPOCH   = 382
BSTAR          = .15322E-2
MEAN_MOTION_DOT = .90872E-3
MEAN_MOTION_DDOT = 0

CCSDS_OMM_VERS = 2.0
CREATION_DATE  = 
ORIGINATOR     = 

OBJECT_NAME    = STARLINK-36456
OBJECT_ID      = 2026-003Z
CENTER_NAME    = EARTH
REF_FRAME      = TEME
TIME_SYSTEM    = UTC
MEAN_ELEMENT_THEORY = SGP/SGP4

EPOCH          = 2026-02-05T01:34:01.035264
MEAN_MOTION    = 15.50654524
ECCENTRICITY   = .0001135
INCLINATION    = 42.9985
RA_OF_ASC_NODE = 52.2440
ARG_OF_PERICENTER = 265.8059
MEAN_ANOMALY   = 94.2671

EPHEMERIS_TYPE = 0
CLASSIFICATION_TYPE = U
NORAD_CAT_ID   = 67357
ELEMENT_SET_NO = 999
REV_AT_EPOCH   = 382
BSTAR          = .20726E-2
MEAN_MOTION_DOT = .123518E-2
MEAN_MOTION_DDOT = 0

