STARLINK-36472          
1 67346U 26003N   26036.06906140  .00118878  00000+0  19988-2 0  9999
2 67346  42.9995  52.2757 0001268 257.2498 102.8221 15.50616899  3816
STARLINK-36420          
1 67347U 26003P   26036.06837510  .00156510  00000+0  26165-2 0  9994
2 67347  42.9988  52.2690 0001460 263.7620  96.3074 15.50623702  3823
STARLINK-36467          
1 67348U 26003Q   26036.06871726  .00117937  00000+0  19833-2 0  9996
2 67348  42.9983  52.2736 0001320 267.7650  92.3059 15.50617301  3829
STARLINK-36457          
1 67349U 26003R   26036.06803425  .00092368  00000+0  15583-2 0  9996
2 67349  42.9963  52.2678 0000408 234.2252 125.8571 15.50641746  3827
STARLINK-36475          
1 67350U 26003S   26036.06768946  .00164825  00000+0  27523-2 0  9991
2 67350  42.9990  52.2637 0001525 245.7232 114.3469 15.50622447  3826
STARLINK-36478          
1 67351U 26003T   26036.06734683  .00139397  00000+0  23373-2 0  9998
2 67351  42.9999  52.2615 0001320 250.1566 109.9152 15.50609263  3825
STARLINK-36479          
1 67352U 26003U   26036.06700384  .00113695  00000+0  19104-2 0  9990
2 67352  42.9967  52.2584 0000430 235.1681 124.9139 15.50657974  3822
STARLINK-36474          
1 67353U 26003V   26035.83334490 -.00090185  00000+0 -15471-2 0  9999
2 67353  42.9995  53.6200 0001188 253.9930 242.1176 15.50616681  5398
STARLINK-36448          
1 67354U 26003W   26036.06563829  .00085551  00000+0  14457-2 0  9998
2 67354  42.9937  52.2472 0000269 147.8918 212.1959 15.50627767  3826
STARLINK-36477          
1 67355U 26003X   26036.13073140  .00105547  00000+0  17780-2 0  9999
2 67355  42.9992  51.8761 0001143 261.9247  98.1483 15.50622484  3835
STARLINK-36429          
1 67356U 26003Y   26036.06597459  .00090872  00000+0  15322-2 0  9990
2 67356  42.9974  52.2480 0002854 281.4435  78.6104 15.50663142  3823
STARLINK-36456          
1 67357U 26003Z   26036.06528976  .00123518  00000+0  20726-2 0  9997
2 67357  42.9985  52.2440 0001135 265.8059  94.2671 15.50654524  3828
